$$SOE
2460721.500000000, A.D. 2025-Feb-15 00:00:00.0000, 4.486932600904112E+08, 8.659024980932748E+07, 2.252736947303189E+07,
2460728.500000000, A.D. 2025-Feb-22 00:00:00.0000, 4.459787592650306E+08, 9.667146809551109E+07, 2.393644463122351E+07,
2460735.500000000, A.D. 2025-Mar-01 00:00:00.0000, 4.430373512645614E+08, 1.067034858280273E+08, 2.533333879075587E+07,
2460742.500000000, A.D. 2025-Mar-08 00:00:00.0000, 4.398697129495143E+08, 1.166810026673951E+08, 2.671729384089543E+07,
2460749.500000000, A.D. 2025-Mar-15 00:00:00.0000, 4.364766603414738E+08, 1.265987137359935E+08, 2.808755380686648E+07,
2460756.500000000, A.D. 2025-Mar-22 00:00:00.0000, 4.328591476303788E+08, 1.364513140287656E+08, 2.944336570224464E+07,
2460763.500000000, A.D. 2025-Mar-29 00:00:00.0000, 4.290182674193138E+08, 1.462335006597657E+08, 3.078398008303147E+07,
2460770.500000000, A.D. 2025-Apr-05 00:00:00.0000, 4.249552525246141E+08, 1.559399760772172E+08, 3.210865152860875E+07,
2460777.500000000, A.D. 2025-Apr-12 00:00:00.0000, 4.206714773985886E+08, 1.655654523464958E+08, 3.341663923347265E+07,
2460784.500000000, A.D. 2025-Apr-19 00:00:00.0000, 4.161684589821954E+08, 1.751046556147972E+08, 3.470720765373411E+07,
2460791.500000000, A.D. 2025-Apr-26 00:00:00.0000, 4.114478572541676E+08, 1.845523305489813E+08, 3.597962716566368E+07,
2460798.500000000, A.D. 2025-May-03 00:00:00.0000, 4.065114755852283E+08, 1.939032447598819E+08, 3.723317472617680E+07,
2460805.500000000, A.D. 2025-May-10 00:00:00.0000, 4.013612609211676E+08, 2.031521932155210E+08, 3.846713453209987E+07,
2460812.500000000, A.D. 2025-May-17 00:00:00.0000, 3.959993038270870E+08, 2.122940025957008E+08, 3.968079867028265E+07,
2460819.500000000, A.D. 2025-May-24 00:00:00.0000, 3.904278385629764E+08, 2.213235355266847E+08, 4.087346773699431E+07,
2460826.500000000, A.D. 2025-May-31 00:00:00.0000, 3.846492436051871E+08, 2.302356949991713E+08, 4.204445141243948E+07,
2460833.500000000, A.D. 2025-Jun-07 00:00:00.0000, 3.786660422084144E+08, 2.390254301652405E+08, 4.319306912397923E+07,
2460840.500000000, A.D. 2025-Jun-14 00:00:00.0000, 3.724809006383098E+08, 2.476877428399372E+08, 4.431865095903724E+07,
2460847.500000000, A.D. 2025-Jun-21 00:00:00.0000, 3.660966252906021E+08, 2.562176914303495E+08, 4.542053844818093E+07,
2460854.500000000, A.D. 2025-Jun-28 00:00:00.0000, 3.595161618250185E+08, 2.646103940477938E+08, 4.649808507451427E+07,
2460861.500000000, A.D. 2025-Jul-05 00:00:00.0000, 3.527425947946457E+08, 2.728610329496806E+08, 4.755065682311514E+07,
2460868.500000000, A.D. 2025-Jul-12 00:00:00.0000, 3.457791465779288E+08, 2.809648594971043E+08, 4.857763281269617E+07,
2460875.500000000, A.D. 2025-Jul-19 00:00:00.0000, 3.386291758026693E+08, 2.889171990444808E+08, 4.957840594402966E+07,
2460882.500000000, A.D. 2025-Jul-26 00:00:00.0000, 3.312961754725552E+08, 2.967134556954474E+08, 5.055238354013327E+07,
2460889.500000000, A.D. 2025-Aug-02 00:00:00.0000, 3.237837708625877E+08, 3.043491169367405E+08, 5.149898797272062E+07,
2460896.500000000, A.D. 2025-Aug-09 00:00:00.0000, 3.160957172077628E+08, 3.118197581248322E+08, 5.241765727007231E+07,
2460903.500000000, A.D. 2025-Aug-16 00:00:00.0000, 3.082358972625091E+08, 3.191210467513962E+08, 5.330784569240686E+07,
2460910.500000000, A.D. 2025-Aug-23 00:00:00.0000, 3.002083190240833E+08, 3.262487464942480E+08, 5.416902424764591E+07,
2460917.500000000, A.D. 2025-Aug-30 00:00:00.0000, 2.920171139505560E+08, 3.331987217588896E+08, 5.500068117442024E+07,
2460924.500000000, A.D. 2025-Sep-06 00:00:00.0000, 2.836665342572421E+08, 3.399669437014394E+08, 5.580232260281618E+07,
2460931.500000000, A.D. 2025-Sep-13 00:00:00.0000, 2.751609476225545E+08, 3.465494952425548E+08, 5.657347334256431E+07,
2460938.500000000, A.D. 2025-Sep-20 00:00:00.0000, 2.665048325833435E+08, 3.529425734233344E+08, 5.731367736452894E+07,
2460945.500000000, A.D. 2025-Sep-27 00:00:00.0000, 2.577027756869723E+08, 3.591424922063515E+08, 5.802249813217150E+07,
2460952.500000000, A.D. 2025-Oct-04 00:00:00.0000, 2.487594683891587E+08, 3.651456862507181E+08, 5.869951901071760E+07,
2460959.500000000, A.D. 2025-Oct-11 00:00:00.0000, 2.396797033293571E+08, 3.709487147092981E+08, 5.934434371008900E+07,
2460966.500000000, A.D. 2025-Oct-18 00:00:00.0000, 2.304683702735912E+08, 3.765482647656839E+08, 5.995659671211438E+07,
2460973.500000000, A.D. 2025-Oct-25 00:00:00.0000, 2.211304518710878E+08, 3.819411549144733E+08, 6.053592366907892E+07,
2460980.500000000, A.D. 2025-Nov-01 00:00:00.0000, 2.116710192714677E+08, 3.871243379933100E+08, 6.108199177023894E+07,
2460987.500000000, A.D. 2025-Nov-08 00:00:00.0000, 2.020952276448390E+08, 3.920949039286474E+08, 6.159449006955320E+07,
2460994.500000000, A.D. 2025-Nov-15 00:00:00.0000, 1.924083117608528E+08, 3.968500821305092E+08, 6.207312975530070E+07,
2461001.500000000, A.D. 2025-Nov-22 00:00:00.0000, 1.826155820381608E+08, 4.013872437509177E+08, 6.251764434174284E+07,
2461008.500000000, A.D. 2025-Nov-29 00:00:00.0000, 1.727224209209072E+08, 4.057039049357532E+08, 6.292778988867578E+07,
2461015.500000000, A.D. 2025-Dec-06 00:00:00.0000, 1.627342773140388E+08, 4.097977309265944E+08, 6.330334544504136E+07,
2461022.500000000, A.D. 2025-Dec-13 00:00:00.0000, 1.526566595172634E+08, 4.136665376362874E+08, 6.364411340022102E+07,
2461029.500000000, A.D. 2025-Dec-20 00:00:00.0000, 1.424951301597774E+08, 4.173082917211582E+08, 6.394991950649151E+07,
2461036.500000000, A.D. 2025-Dec-27 00:00:00.0000, 1.322553020734979E+08, 4.207211117395098E+08, 6.422061288275811E+07,
2461043.500000000, A.D. 2026-Jan-03 00:00:00.0000, 1.219428336555543E+08, 4.239032697780584E+08, 6.445606608279419E+07,
2461050.500000000, A.D. 2026-Jan-10 00:00:00.0000, 1.115634238397594E+08, 4.268531928663613E+08, 6.465617516262484E+07,
2461057.500000000, A.D. 2026-Jan-17 00:00:00.0000, 1.011228069203007E+08, 4.295694640876436E+08, 6.482085971864215E+07,
2461064.500000000, A.D. 2026-Jan-24 00:00:00.0000, 9.062674731654283E+07, 4.320508234090245E+08, 6.495006289156407E+07,
2461071.500000000, A.D. 2026-Jan-31 00:00:00.0000, 8.008103431325497E+07, 4.342961682243508E+08, 6.504375133385807E+07,
2461078.500000000, A.D. 2026-Feb-07 00:00:00.0000, 6.949147684837377E+07, 4.363045535532875E+08, 6.510191513068235E+07,
2461085.500000000, A.D. 2026-Feb-14 00:00:00.0000, 5.886389861156056E+07, 4.380751918829672E+08, 6.512456765034196E+07,
2461092.500000000, A.D. 2026-Feb-21 00:00:00.0000, 4.820413385108975E+07, 4.396074532320136E+08, 6.511174533654591E+07,
2461099.500000000, A.D. 2026-Feb-28 00:00:00.0000, 3.751802281505727E+07, 4.409008665940093E+08, 6.506350763696972E+07,
2461106.500000000, A.D. 2026-Mar-07 00:00:00.0000, 2.681140477924170E+07, 4.419551208112774E+08, 6.497993709769148E+07,
2461113.500000000, A.D. 2026-Mar-14 00:00:00.0000, 1.609011144464093E+07, 4.427700625473210E+08, 6.486113917876893E+07,
2461120.500000000, A.D. 2026-Mar-21 00:00:00.0000, 5.359962495697402E+06, 4.433456942627501E+08, 6.470724186592978E+07,
2461127.500000000, A.D. 2026-Mar-28 00:00:00.0000, -5.373238679578241E+06, 4.436821732291123E+08, 6.451839534790114E+07,
2461134.500000000, A.D. 2026-Apr-04 00:00:00.0000, -1.610370970194741E+07, 4.437798106188928E+08, 6.429477173668960E+07,
2461141.500000000, A.D. 2026-Apr-11 00:00:00.0000, -2.682569406314661E+07, 4.436390703164691E+08, 6.403656477732065E+07,
2461148.500000000, A.D. 2026-Apr-18 00:00:00.0000, -3.753346596976777E+07, 4.432605674483839E+08, 6.374398953288388E+07,
2461155.500000000, A.D. 2026-Apr-25 00:00:00.0000, -4.822133511419593E+07, 4.426450666521916E+08, 6.341728204265419E+07,
2461162.500000000, A.D. 2026-May-02 00:00:00.0000, -5.888365133404092E+07, 4.417934800582695E+08, 6.305669894868287E+07,
2461169.500000000, A.D. 2026-May-09 00:00:00.0000, -6.951480902918020E+07, 4.407068649226956E+08, 6.266251707482615E+07,
2461176.500000000, A.D. 2026-May-16 00:00:00.0000, -8.010925095374496E+07, 4.393864210555007E+08, 6.223503293618110E+07,
2461183.500000000, A.D. 2026-May-23 00:00:00.0000, -9.066147132718579E+07, 4.378334890754284E+08, 6.177456225966117E+07,
2461190.500000000, A.D. 2026-May-30 00:00:00.0000, -1.011660203373541E+08, 4.360495498215178E+08, 6.128143973446876E+07,
2461197.500000000, A.D. 2026-Jun-06 00:00:00.0000, -1.116175103456265E+08, 4.340362216555012E+08, 6.075601875513166E+07,
2461204.500000000, A.D. 2026-Jun-13 00:00:00.0000, -1.220106201240079E+08, 4.317952558597372E+08, 6.019867083804303E+07,
2461211.500000000, A.D. 2026-Jun-20 00:00:00.0000, -1.323400976222271E+08, 4.293285330667405E+08, 5.960978499799591E+07,
2461218.500000000, A.D. 2026-Jun-27 00:00:00.0000, -1.426007629583344E+08, 4.266380603893008E+08, 5.898976721354535E+07,
2461225.500000000, A.D. 2026-Jul-04 00:00:00.0000, -1.527875116291016E+08, 4.237259684829484E+08, 5.833903991841727E+07,
2461232.500000000, A.D. 2026-Jul-11 00:00:00.0000, -1.628953176838689E+08, 4.205945084157733E+08, 5.765804148558515E+07,
2461239.500000000, A.D. 2026-Jul-18 00:00:00.0000, -1.729192367673361E+08, 4.172460483788050E+08, 5.694722569842130E+07,
2461246.500000000, A.D. 2026-Jul-25 00:00:00.0000, -1.828544090054883E+08, 4.136830702473736E+08, 5.620706120777190E+07,
2461253.500000000, A.D. 2026-Aug-01 00:00:00.0000, -1.926960616855842E+08, 4.099081659530567E+08, 5.543803096750236E+07,
2461260.500000000, A.D. 2026-Aug-08 00:00:00.0000, -2.024395115148024E+08, 4.059240336379598E+08, 5.464063162678900E+07,
2461267.500000000, A.D. 2026-Aug-15 00:00:00.0000, -2.120801660426759E+08, 4.017334740492980E+08, 5.381537287886357E+07,
2461274.500000000, A.D. 2026-Aug-22 00:00:00.0000, -2.216135250095451E+08, 3.973393884039189E+08, 5.296277693692237E+07,
2461281.500000000, A.D. 2026-Aug-29 00:00:00.0000, -2.310351839108123E+08, 3.927447763593618E+08, 5.208337823605233E+07,
2461288.500000000, A.D. 2026-Sep-05 00:00:00.0000, -2.403408376423426E+08, 3.879527312297133E+08, 5.117772293171589E+07,
2461295.500000000, A.D. 2026-Sep-12 00:00:00.0000, -2.495262817740227E+08, 3.829664349466681E+08, 5.024636817438178E+07,
$$EOE